{"type": "FeatureCollection", "features": [ {"type": "Feature", "properties": {"norad_id": 41335, "name": "SENTINEL-3A", "group": "resource", "lat": 2.116591886858341, "lon": 44.93394916173312, "alt_km": 805.2481341879284, "timestamp": "2025-12-06T03:35:01.454730+00:00", "meta": {"OBJECT_NAME": "SENTINEL-3A", "OBJECT_ID": "2016-011A", "EPOCH": "2025-12-05T07:22:35.064192", "MEAN_MOTION": 14.26742248, "ECCENTRICITY": 9.724e-05, "INCLINATION": 98.6217, "RA_OF_ASC_NODE": 44.4259, "ARG_OF_PERICENTER": 91.7055, "MEAN_ANOMALY": 268.4237, "EPHEMERIS_TYPE": 0, "CLASSIFICATION_TYPE": "U", "NORAD_CAT_ID": 41335, "ELEMENT_SET_NO": 999, "REV_AT_EPOCH": 51041, "BSTAR": 0.00014829654, "MEAN_MOTION_DOT": 3.15e-06, "MEAN_MOTION_DDOT": 0}, "tle": {"line1": "1 41335U 16011A   25339.30735028  .00000315  00000+0  14830-3 0  9992", "line2": "2 41335  98.6217  44.4259 0000972  91.7055 268.4237 14.26742248510417"}}, "geometry": {"type": "Point", "coordinates": [44.93394916173312, 2.116591886858341]}}, {"type": "Feature", "properties": {"norad_id": 41556, "name": "ZIYUAN 3-2 (ZY 3-2)", "group": "resource", "lat": 30.975286029964426, "lon": 49.94715393078391, "alt_km": 503.8865075617605, "timestamp": "2025-12-06T03:35:01.454740+00:00", "meta": {"OBJECT_NAME": "ZIYUAN 3-2 (ZY 3-2)", "OBJECT_ID": "2016-033A", "EPOCH": "2025-12-05T06:55:31.740384", "MEAN_MOTION": 15.21339807, "ECCENTRICITY": 0.00124169, "INCLINATION": 97.4058, "RA_OF_ASC_NODE": 53.5786, "ARG_OF_PERICENTER": 278.1825, "MEAN_ANOMALY": 81.8002, "EPHEMERIS_TYPE": 0, "CLASSIFICATION_TYPE": "U", "NORAD_CAT_ID": 41556, "ELEMENT_SET_NO": 999, "REV_AT_EPOCH": 52850, "BSTAR": 0.00061331589, "MEAN_MOTION_DOT": 0.00013708, "MEAN_MOTION_DDOT": 0}, "tle": {"line1": "1 41556U 16033A   25339.28856181  .00013708  00000+0  61332-3 0  9991", "line2": "2 41556  97.4058  53.5786 0012416 278.1825  81.8002 15.21339807528505"}}, "geometry": {"type": "Point", "coordinates": [49.94715393078391, 30.975286029964426]}}, {"type": "Feature", "properties": {"norad_id": 41599, "name": "CARTOSAT-2C", "group": "resource", "lat": 26.430275469692983, "lon": 33.72400782864818, "alt_km": 503.26421800996195, "timestamp": "2025-12-06T03:35:01.454751+00:00", "meta": {"OBJECT_NAME": "CARTOSAT-2C", "OBJECT_ID": "2016-040A", "EPOCH": "2025-12-05T06:54:59.584896", "MEAN_MOTION": 15.19187793, "ECCENTRICITY": 0.00110627, "INCLINATION": 97.4779, "RA_OF_ASC_NODE": 36.6151, "ARG_OF_PERICENTER": 87.4558, "MEAN_ANOMALY": 272.7943, "EPHEMERIS_TYPE": 0, "CLASSIFICATION_TYPE": "U", "NORAD_CAT_ID": 41599, "ELEMENT_SET_NO": 999, "REV_AT_EPOCH": 52427, "BSTAR": 0.0006809206, "MEAN_MOTION_DOT": 0.00014296, "MEAN_MOTION_DDOT": 0}, "tle": {"line1": "1 41599U 16040A   25339.28818964  .00014296  00000+0  68092-3 0  9996", "line2": "2 41599  97.4779  36.6151 0011062  87.4558 272.7943 15.19187793524277"}}, "geometry": {"type": "Point", "coordinates": [33.72400782864818, 26.430275469692983]}}, {"type": "Feature", "properties": {"norad_id": 41601, "name": "SKYSAT-C1", "group": "resource", "lat": 51.00481963589645, "lon": -153.75684980555576, "alt_km": 464.2498736192638, "timestamp": "2025-12-06T03:35:01.454762+00:00", "meta": {"OBJECT_NAME": "SKYSAT-C1", "OBJECT_ID": "2016-040C", "EPOCH": "2025-12-05T01:57:01.804032", "MEAN_MOTION": 15.32381206, "ECCENTRICITY": 0.00031577, "INCLINATION": 96.983, "RA_OF_ASC_NODE": 16.5281, "ARG_OF_PERICENTER": 34.7791, "MEAN_ANOMALY": 325.3658, "EPHEMERIS_TYPE": 0, "CLASSIFICATION_TYPE": "U", "NORAD_CAT_ID": 41601, "ELEMENT_SET_NO": 999, "REV_AT_EPOCH": 52810, "BSTAR": 0.00055181543, "MEAN_MOTION_DOT": 0.00017202, "MEAN_MOTION_DDOT": 0}, "tle": {"line1": "1 41601U 16040C   25339.08127088  .00017202  00000+0  55182-3 0  9994", "line2": "2 41601  96.9830  16.5281 0003157  34.7791 325.3658 15.32381206528108"}}, "geometry": {"type": "Point", "coordinates": [-153.75684980555576, 51.00481963589645]}}, {"type": "Feature", "properties": {"norad_id": 41603, "name": "LAPAN-A3", "group": "resource", "lat": -63.83442761929543, "lon": -7.267945925926492, "alt_km": 475.3802828547159, "timestamp": "2025-12-06T03:35:01.454773+00:00", "meta": {"OBJECT_NAME": "LAPAN-A3", "OBJECT_ID": "2016-040E", "EPOCH": "2025-12-05T07:28:47.360064", "MEAN_MOTION": 15.31461931, "ECCENTRICITY": 0.00105869, "INCLINATION": 97.142, "RA_OF_ASC_NODE": 337.1388, "ARG_OF_PERICENTER": 1.48, "MEAN_ANOMALY": 358.6472, "EPHEMERIS_TYPE": 0, "CLASSIFICATION_TYPE": "U", "NORAD_CAT_ID": 41603, "ELEMENT_SET_NO": 999, "REV_AT_EPOCH": 52512, "BSTAR": 0.00023653693, "MEAN_MOTION_DOT": 7.124e-05, "MEAN_MOTION_DDOT": 0}, "tle": {"line1": "1 41603U 16040E   25339.31165926  .00007124  00000+0  23654-3 0  9996", "line2": "2 41603  97.1420 337.1388 0010586   1.4800 358.6472 15.31461931525129"}}, "geometry": {"type": "Point", "coordinates": [-7.267945925926492, -63.83442761929543]}}, {"type": "Feature", "properties": {"norad_id": 41604, "name": "BIROS", "group": "resource", "lat": -32.83278232023357, "lon": -173.26098603519404, "alt_km": 315.50000696238294, "timestamp": "2025-12-06T03:35:01.454783+00:00", "meta": {"OBJECT_NAME": "BIROS", "OBJECT_ID": "2016-040F", "EPOCH": "2025-12-05T00:57:33.792480", "MEAN_MOTION": 15.86576888, "ECCENTRICITY": 0.00029436, "INCLINATION": 97.0688, "RA_OF_ASC_NODE": 10.1826, "ARG_OF_PERICENTER": 166.0807, "MEAN_ANOMALY": 194.0547, "EPHEMERIS_TYPE": 0, "CLASSIFICATION_TYPE": "U", "NORAD_CAT_ID": 41604, "ELEMENT_SET_NO": 999, "REV_AT_EPOCH": 52750, "BSTAR": 0.00082592991, "MEAN_MOTION_DOT": 0.00212324, "MEAN_MOTION_DDOT": 0}, "tle": {"line1": "1 41604U 16040F   25339.03997445  .00212324  00000+0  82593-3 0  9992", "line2": "2 41604  97.0688  10.1826 0002943 166.0807 194.0547 15.86576888527500"}}, "geometry": {"type": "Point", "coordinates": [-173.26098603519404, -32.83278232023357]}}, {"type": "Feature", "properties": {"norad_id": 41727, "name": "GAOFEN-3", "group": "resource", "lat": 27.15870881782954, "lon": -18.513465241964838, "alt_km": 749.2655185326175, "timestamp": "2025-12-06T03:35:01.454793+00:00", "meta": {"OBJECT_NAME": "GAOFEN-3", "OBJECT_ID": "2016-049A", "EPOCH": "2025-12-05T07:28:32.902752", "MEAN_MOTION": 14.42210162, "ECCENTRICITY": 0.00015623, "INCLINATION": 98.404, "RA_OF_ASC_NODE": 345.0111, "ARG_OF_PERICENTER": 71.3774, "MEAN_ANOMALY": 288.7586, "EPHEMERIS_TYPE": 0, "CLASSIFICATION_TYPE": "U", "NORAD_CAT_ID": 41727, "ELEMENT_SET_NO": 999, "REV_AT_EPOCH": 49070, "BSTAR": 2.179539e-06, "MEAN_MOTION_DOT": -3.6e-07, "MEAN_MOTION_DDOT": 0}, "tle": {"line1": "1 41727U 16049A   25339.31149193 -.00000036  00000+0  21795-5 0  9992", "line2": "2 41727  98.4040 345.0111 0001562  71.3774 288.7586 14.42210162490703"}}, "geometry": {"type": "Point", "coordinates": [-18.513465241964838, 27.15870881782954]}}, {"type": "Feature", "properties": {"norad_id": 41771, "name": "SKYSAT-C4", "group": "resource", "lat": -16.004209200835657, "lon": -176.3422258429105, "alt_km": 445.06299866043446, "timestamp": "2025-12-06T03:35:01.454804+00:00", "meta": {"OBJECT_NAME": "SKYSAT-C4", "OBJECT_ID": "2016-058B", "EPOCH": "2025-12-05T01:48:59.358528", "MEAN_MOTION": 15.41925723, "ECCENTRICITY": 8.27e-05, "INCLINATION": 96.9374, "RA_OF_ASC_NODE": 4.6381, "ARG_OF_PERICENTER": 125.4241, "MEAN_ANOMALY": 234.7085, "EPHEMERIS_TYPE": 0, "CLASSIFICATION_TYPE": "U", "NORAD_CAT_ID": 41771, "ELEMENT_SET_NO": 999, "REV_AT_EPOCH": 51549, "BSTAR": 0.00060426352, "MEAN_MOTION_DOT": 0.00025664, "MEAN_MOTION_DDOT": 0}, "tle": {"line1": "1 41771U 16058B   25339.07568702  .00025664  00000+0  60426-3 0  9990", "line2": "2 41771  96.9374   4.6381 0000827 125.4241 234.7085 15.41925723515490"}}, "geometry": {"type": "Point", "coordinates": [-176.3422258429105, -16.004209200835657]}}, {"type": "Feature", "properties": {"norad_id": 41772, "name": "SKYSAT-C5", "group": "resource", "lat": -82.53945069605678, "lon": 95.71474549181282, "alt_km": 467.9702734987595, "timestamp": "2025-12-06T03:35:01.454814+00:00", "meta": {"OBJECT_NAME": "SKYSAT-C5", "OBJECT_ID": "2016-058C", "EPOCH": "2025-12-04T15:59:40.599168", "MEAN_MOTION": 15.35439271, "ECCENTRICITY": 0.00027915, "INCLINATION": 97.0762, "RA_OF_ASC_NODE": 22.7382, "ARG_OF_PERICENTER": 112.5745, "MEAN_ANOMALY": 247.5795, "EPHEMERIS_TYPE": 0, "CLASSIFICATION_TYPE": "U", "NORAD_CAT_ID": 41772, "ELEMENT_SET_NO": 999, "REV_AT_EPOCH": 51392, "BSTAR": 0.0029530445, "MEAN_MOTION_DOT": 0.00102855, "MEAN_MOTION_DDOT": 0}, "tle": {"line1": "1 41772U 16058C   25338.66644212  .00102855  00000+0  29530-2 0  9994", "line2": "2 41772  97.0762  22.7382 0002791 112.5745 247.5795 15.35439271513921"}}, "geometry": {"type": "Point", "coordinates": [95.71474549181282, -82.53945069605678]}}, {"type": "Feature", "properties": {"norad_id": 41773, "name": "SKYSAT-C2", "group": "resource", "lat": -57.28013358539629, "lon": 173.87302352342297, "alt_km": 465.33261086117636, "timestamp": "2025-12-06T03:35:01.454825+00:00", "meta": {"OBJECT_NAME": "SKYSAT-C2", "OBJECT_ID": "2016-058D", "EPOCH": "2025-12-05T07:48:08.369568", "MEAN_MOTION": 15.37020473, "ECCENTRICITY": 0.00049532, "INCLINATION": 97.0361, "RA_OF_ASC_NODE": 4.1676, "ARG_OF_PERICENTER": 53.3829, "MEAN_ANOMALY": 306.7871, "EPHEMERIS_TYPE": 0, "CLASSIFICATION_TYPE": "U", "NORAD_CAT_ID": 41773, "ELEMENT_SET_NO": 999, "REV_AT_EPOCH": 51522, "BSTAR": 0.00053576913, "MEAN_MOTION_DOT": 0.0001936, "MEAN_MOTION_DDOT": 0}, "tle": {"line1": "1 41773U 16058D   25339.32509687  .00019360  00000+0  53577-3 0  9992", "line2": "2 41773  97.0361   4.1676 0004953  53.3829 306.7871 15.37020473515224"}}, "geometry": {"type": "Point", "coordinates": [173.87302352342297, -57.28013358539629]}}]}